QIANFAN-57              
1 62787U 25016C   25330.90130915  .00000141  00000+0  19959-3 0  9996
2 62787  88.9773 104.8319 0001742 129.1132 231.0174 13.50982343 45064
QIANFAN-58              
1 62788U 25016D   25330.87251023  .00000135  00000+0  19068-3 0  9991
2 62788  88.9743 104.6713 0014447  35.4017 324.8090 13.50973271 45108
QIANFAN-59              
1 62789U 25016E   25330.89719016  .00000142  00000+0  20087-3 0  9996
2 62789  88.9766 104.7387 0014929  38.8529 321.3692 13.50975025 45101
QIANFAN-60              
1 62790U 25016F   25330.93029516  .00000079  00000+0  10352-3 0  9995
2 62790  88.9748 104.7098 0016347  34.8693 325.3525 13.50978337 45092
QIANFAN-61              
1 62791U 25016G   25330.88897682  .00000135  00000+0  18980-3 0  9995
2 62791  88.9814 104.8662 0015287  34.7224 325.4922 13.50975366 45109
QIANFAN-62              
1 62792U 25016H   25330.89310905  .00000142  00000+0  20064-3 0  9999
2 62792  88.9761 104.7427 0016671  34.5658 325.6574 13.50985354 45097
QIANFAN-63              
1 62793U 25016J   25330.91784375  .00000148  00000+0  21049-3 0  9999
2 62793  88.9768 104.6906 0016854  39.5951 320.6428 13.50978473 45132
QIANFAN-64              
1 62794U 25016K   25330.88485444  .00000154  00000+0  21925-3 0  9991
2 62794  88.9754 104.6703 0014631  33.6913 326.5166 13.50980339 45124
